CTC2_L_00453008-13
1 10124U 26411HL  26075.70046296  .00000000  00000+0  00000-0 0  9995
2 10124  88.0000  31.8987 0000000   0.0000 277.9747 15.90815360    14
CTC2_L_00453008-14
1 10125U 24478TE  26075.70046296  .00000000  00000+0  00000-0 0  9997
2 10125  88.0000  31.8987 0000000   0.0000 300.4747 15.90815360    17
CTC2_L_00453008-15
1 10126U 23202BA  26075.70046296  .00000000  00000+0  00000-0 0  9992
2 10126  88.0000  31.8987 0000000   0.0000 322.9747 15.90815360    17
CTC2_L_00453008-16
1 10127U 24300MB  26075.70046296  .00000000  00000+0  00000-0 0  9993
2 10127  88.0000  31.8987 0000000   0.0000 345.4747 15.90815360    18
CTC2_L_00453009-01
1 10128U 23315YA  26075.70046296  .00000000  00000+0  00000-0 0  9999
2 10128  88.0000  36.4557 0000000   0.0000   9.1139 15.90815360    12
CTC2_L_00453009-02
1 10129U 24152OW  26075.70046296  .00000000  00000+0  00000-0 0  9990
2 10129  88.0000  36.4557 0000000   0.0000  31.6139 15.90815360    13
CTC2_L_00453009-03
1 10130U 22289WY  26075.70046296  .00000000  00000+0  00000-0 0  9991
2 10130  88.0000  36.4557 0000000   0.0000  54.1139 15.90815360    15
CTC2_L_00453009-04
1 10131U 22918NR  26075.70046296  .00000000  00000+0  00000-0 0  9991
2 10131  88.0000  36.4557 0000000   0.0000  76.6139 15.90815360    15
CTC2_L_00453009-05
1 10132U 23377TN  26075.70046296  .00000000  00000+0  00000-0 0  9992
2 10132  88.0000  36.4557 0000000   0.0000  99.1139 15.90815360    16
CTC2_L_00453009-06
1 10133U 25206OE  26075.70046296  .00000000  00000+0  00000-0 0  9996
2 10133  88.0000  36.4557 0000000   0.0000 121.6139 15.90815360    18
CTC2_L_00453009-07
1 10134U 23034VB  26075.70046296  .00000000  00000+0  00000-0 0  9994
2 10134  88.0000  36.4557 0000000   0.0000 144.1139 15.90815360    19
CTC2_L_00453009-08
1 10135U 22979AG  26075.70046296  .00000000  00000+0  00000-0 0  9992
2 10135  88.0000  36.4557 0000000   0.0000 166.6139 15.90815360    19
CTC2_L_00453009-09
1 10136U 25481FW  26075.70046296  .00000000  00000+0  00000-0 0  9994
2 10136  88.0000  36.4557 0000000   0.0000 189.1139 15.90815360    10
CTC2_L_00453009-10
1 10137U 25032GW  26075.70046296  .00000000  00000+0  00000-0 0  9997
2 10137  88.0000  36.4557 0000000   0.0000 211.6139 15.90815360    12
CTC2_L_00453009-11
1 10138U 24232XX  26075.70046296  .00000000  00000+0  00000-0 0  9999
2 10138  88.0000  36.4557 0000000   0.0000 234.1139 15.90815360    13
CTC2_L_00453009-12
1 10139U 23599HJ  26075.70046296  .00000000  00000+0  00000-0 0  9995
2 10139  88.0000  36.4557 0000000   0.0000 256.6139 15.90815360    13
CTC2_L_00453009-13
1 10140U 24285PB  26075.70046296  .00000000  00000+0  00000-0 0  9990
2 10140  88.0000  36.4557 0000000   0.0000 279.1139 15.90815360    15
CTC2_L_00453009-14
1 10141U 24146ZV  26075.70046296  .00000000  00000+0  00000-0 0  9997
2 10141  88.0000  36.4557 0000000   0.0000 301.6139 15.90815360    17
CTC2_L_00453009-15
1 10142U 25284CL  26075.70046296  .00000000  00000+0  00000-0 0  9992
2 10142  88.0000  36.4557 0000000   0.0000 324.1139 15.90815360    18
CTC2_L_00453009-16
1 10143U 26776CH  26075.70046296  .00000000  00000+0  00000-0 0  9990
2 10143  88.0000  36.4557 0000000   0.0000 346.6139 15.90815360    18
CTC2_L_00453010-01
1 10144U 23568UU  26075.70046296  .00000000  00000+0  00000-0 0  9997
2 10144  88.0000  41.0127 0000000   0.0000  10.2532 15.90815360    15
CTC2_L_00453010-02
1 10145U 26858PO  26075.70046296  .00000000  00000+0  00000-0 0  9993
2 10145  88.0000  41.0127 0000000   0.0000  32.7532 15.90815360    15
CTC2_L_00453010-03
1 10146U 23116QD  26075.70046296  .00000000  00000+0  00000-0 0  9998
2 10146  88.0000  41.0127 0000000   0.0000  55.2532 15.90815360    16
CTC2_L_00453010-04
1 10147U 22026MC  26075.70046296  .00000000  00000+0  00000-0 0  9998
2 10147  88.0000  41.0127 0000000   0.0000  77.7532 15.90815360    16
CTC2_L_00453010-05
1 10148U 26728WC  26075.70046296  .00000000  00000+0  00000-0 0  9992
2 10148  88.0000  41.0127 0000000   0.0000 100.2532 15.90815360    19
CTC2_L_00453010-06
1 10149U 25522IX  26075.70046296  .00000000  00000+0  00000-0 0  9994
2 10149  88.0000  41.0127 0000000   0.0000 122.7532 15.90815360    19
CTC2_L_00453010-07
1 10150U 24171GV  26075.70046296  .00000000  00000+0  00000-0 0  9995
2 10150  88.0000  41.0127 0000000   0.0000 145.2532 15.90815360    11
CTC2_L_00453010-08
1 10151U 24337SC  26075.70046296  .00000000  00000+0  00000-0 0  9990
2 10151  88.0000  41.0127 0000000   0.0000 167.7532 15.90815360    11
CTC2_L_00453010-09
1 10152U 22892JW  26075.70046296  .00000000  00000+0  00000-0 0  9995
2 10152  88.0000  41.0127 0000000   0.0000 190.2532 15.90815360    13
CTC2_L_00453010-10
1 10153U 22300CL  26075.70046296  .00000000  00000+0  00000-0 0  9990
2 10153  88.0000  41.0127 0000000   0.0000 212.7532 15.90815360    14
CTC2_L_00453010-11
1 10154U 24593JN  26075.70046296  .00000000  00000+0  00000-0 0  9997
2 10154  88.0000  41.0127 0000000   0.0000 235.2532 15.90815360    15
CTC2_L_00453010-12
1 10155U 26288RL  26075.70046296  .00000000  00000+0  00000-0 0  9991
2 10155  88.0000  41.0127 0000000   0.0000 257.7532 15.90815360    15
CTC2_L_00453010-13
1 10156U 25375QP  26075.70046296  .00000000  00000+0  00000-0 0  9998
2 10156  88.0000  41.0127 0000000   0.0000 280.2532 15.90815360    17
CTC2_L_00453010-14
1 10157U 22554HF  26075.70046296  .00000000  00000+0  00000-0 0  9995
2 10157  88.0000  41.0127 0000000   0.0000 302.7532 15.90815360    18
CTC2_L_00453010-15
1 10158U 22958GQ  26075.70046296  .00000000  00000+0  00000-0 0  9994
2 10158  88.0000  41.0127 0000000   0.0000 325.2532 15.90815360    19
CTC2_L_00453010-16
1 10159U 26182SW  26075.70046296  .00000000  00000+0  00000-0 0  9998
2 10159  88.0000  41.0127 0000000   0.0000 347.7532 15.90815360    19
CTC2_L_00453011-01
1 10160U 26709KQ  26075.70046296  .00000000  00000+0  00000-0 0  9995
2 10160  88.0000  45.5696 0000000   0.0000  11.3924 15.90815360    10
CTC2_L_00453011-02
1 10161U 22258IP  26075.70046296  .00000000  00000+0  00000-0 0  9991
2 10161  88.0000  45.5696 0000000   0.0000  33.8924 15.90815360    10
CTC2_L_00453011-03
1 10162U 26418KR  26075.70046296  .00000000  00000+0  00000-0 0  9994
2 10162  88.0000  45.5696 0000000   0.0000  56.3924 15.90815360    11
CTC2_L_00453011-04
1 10163U 22507YJ  26075.70046296  .00000000  00000+0  00000-0 0  9990
2 10163  88.0000  45.5696 0000000   0.0000  78.8924 15.90815360    11
CTC2_L_00453011-05
1 10164U 23208CP  26075.70046296  .00000000  00000+0  00000-0 0  9990
2 10164  88.0000  45.5696 0000000   0.0000 101.3924 15.90815360    14
CTC2_L_00453011-06
1 10165U 26832KT  26075.70046296  .00000000  00000+0  00000-0 0  9997
2 10165  88.0000  45.5696 0000000   0.0000 123.8924 15.90815360    14
CTC2_L_00453011-07
1 10166U 22304NQ  26075.70046296  .00000000  00000+0  00000-0 0  9998
2 10166  88.0000  45.5696 0000000   0.0000 146.3924 15.90815360    15
CTC2_L_00453011-08
1 10167U 25655EE  26075.70046296  .00000000  00000+0  00000-0 0  9991
2 10167  88.0000  45.5696 0000000   0.0000 168.8924 15.90815360    15
CTC2_L_00453011-09
1 10168U 22099RR  26075.70046296  .00000000  00000+0  00000-0 0  9991
2 10168  88.0000  45.5696 0000000   0.0000 191.3924 15.90815360    17
CTC2_L_00453011-10
1 10169U 25362PN  26075.70046296  .00000000  00000+0  00000-0 0  9998
2 10169  88.0000  45.5696 0000000   0.0000 213.8924 15.90815360    18
CTC2_L_00453011-11
1 10170U 23402AD  26075.70046296  .00000000  00000+0  00000-0 0  9993
2 10170  88.0000  45.5696 0000000   0.0000 236.3924 15.90815360    10
CTC2_L_00453011-12
1 10171U 26969ES  26075.70046296  .00000000  00000+0  00000-0 0  9995
2 10171  88.0000  45.5696 0000000   0.0000 258.8924 15.90815360    10
CTC2_L_00453011-13
1 10172U 25384CI  26075.70046296  .00000000  00000+0  00000-0 0  9996
2 10172  88.0000  45.5696 0000000   0.0000 281.3924 15.90815360    12
CTC2_L_00453011-14
1 10173U 23968QS  26075.70046296  .00000000  00000+0  00000-0 0  9993
2 10173  88.0000  45.5696 0000000   0.0000 303.8924 15.90815360    13
CTC2_L_00453011-15
1 10174U 23058KL  26075.70046296  .00000000  00000+0  00000-0 0  9994
2 10174  88.0000  45.5696 0000000   0.0000 326.3924 15.90815360    14
CTC2_L_00453011-16
1 10175U 23526SE  26075.70046296  .00000000  00000+0  00000-0 0  9995
2 10175  88.0000  45.5696 0000000   0.0000 348.8924 15.90815360    14
CTC2_L_00453012-01
1 10176U 26891GA  26075.70046296  .00000000  00000+0  00000-0 0  9994
2 10176  88.0000  50.1266 0000000   0.0000  12.5316 15.90815360    10
CTC2_L_00453012-02
1 10177U 23926SZ  26075.70046296  .00000000  00000+0  00000-0 0  9991
2 10177  88.0000  50.1266 0000000   0.0000  35.0316 15.90815360    11
CTC2_L_00453012-03
1 10178U 23317ZN  26075.70046296  .00000000  00000+0  00000-0 0  9996
2 10178  88.0000  50.1266 0000000   0.0000  57.5316 15.90815360    11
CTC2_L_00453012-04
1 10179U 23510GU  26075.70046296  .00000000  00000+0  00000-0 0  9992
2 10179  88.0000  50.1266 0000000   0.0000  80.0316 15.90815360    13
CTC2_L_00453012-05
1 10180U 24843MK  26075.70046296  .00000000  00000+0  00000-0 0  9994
2 10180  88.0000  50.1266 0000000   0.0000 102.5316 15.90815360    15
CTC2_L_00453012-06
1 10181U 25123FK  26075.70046296  .00000000  00000+0  00000-0 0  9997
2 10181  88.0000  50.1266 0000000   0.0000 125.0316 15.90815360    16
CTC2_L_00453012-07
1 10182U 25481CF  26075.70046296  .00000000  00000+0  00000-0 0  9995
2 10182  88.0000  50.1266 0000000   0.0000 147.5316 15.90815360    16
CTC2_L_00453012-08
1 10183U 22707R   26075.70046296  .00000000  00000+0  00000-0 0  9994
2 10183  88.0000  50.1266 0000000   0.0000 170.0316 15.90815360    18
CTC2_L_00453012-09
1 10184U 25950SB  26075.70046296  .00000000  00000+0  00000-0 0  9998
2 10184  88.0000  50.1266 0000000   0.0000 192.5316 15.90815360    18
CTC2_L_00453012-10
1 10185U 23520JX  26075.70046296  .00000000  00000+0  00000-0 0  9990
2 10185  88.0000  50.1266 0000000   0.0000 215.0316 15.90815360    10
